{
  "links" : {
    "next" : "https://api.nasa.gov/neo/rest/v1/feed?start_date=2001-11-16&end_date=2001-11-16&detailed=true&api_key=t0TVs3DtDT2H8Oy2Zy8m2eVrNsAVKAexjcZXUckd",
    "prev" : "https://api.nasa.gov/neo/rest/v1/feed?start_date=2001-11-14&end_date=2001-11-14&detailed=true&api_key=t0TVs3DtDT2H8Oy2Zy8m2eVrNsAVKAexjcZXUckd",
    "self" : "https://api.nasa.gov/neo/rest/v1/feed?start_date=2001-11-15&end_date=2001-11-15&detailed=true&api_key=t0TVs3DtDT2H8Oy2Zy8m2eVrNsAVKAexjcZXUckd"
  },
  "element_count" : 3,
  "near_earth_objects" : {
    "2001-11-15" : [ {
      "links" : {
        "self" : "https://api.nasa.gov/neo/rest/v1/neo/3346477?api_key=t0TVs3DtDT2H8Oy2Zy8m2eVrNsAVKAexjcZXUckd"
      },
      "neo_reference_id" : "3346477",
      "name" : "(2006 SP198)",
      "nasa_jpl_url" : "http://ssd.jpl.nasa.gov/sbdb.cgi?sstr=3346477",
      "absolute_magnitude_h" : 21.7,
      "estimated_diameter" : {
        "kilometers" : {
          "estimated_diameter_min" : 0.1214940408,
          "estimated_diameter_max" : 0.2716689341
        },
        "meters" : {
          "estimated_diameter_min" : 121.4940407996,
          "estimated_diameter_max" : 271.6689340891
        },
        "miles" : {
          "estimated_diameter_min" : 0.0754928736,
          "estimated_diameter_max" : 0.1688071972
        },
        "feet" : {
          "estimated_diameter_min" : 398.6025088171,
          "estimated_diameter_max" : 891.3023057169
        }
      },
      "is_potentially_hazardous_asteroid" : false,
      "close_approach_data" : [ {
        "close_approach_date" : "2001-11-15",
        "epoch_date_close_approach" : 1005811200000,
        "relative_velocity" : {
          "kilometers_per_second" : "4.4192710134",
          "kilometers_per_hour" : "15909.3756481494",
          "miles_per_hour" : "9885.4673298182"
        },
        "miss_distance" : {
          "astronomical" : "0.2773458121",
          "lunar" : "107.8875198364",
          "kilometers" : "41490344",
          "miles" : "25780904"
        },
        "orbiting_body" : "Earth"
      } ],
      "orbital_data" : {
        "orbit_id" : "14",
        "orbit_determination_date" : "2017-04-06 09:08:00",
        "orbit_uncertainty" : "5",
        "minimum_orbit_intersection" : ".280408",
        "jupiter_tisserand_invariant" : "2.993",
        "epoch_osculation" : "2458000.5",
        "eccentricity" : ".573621858768117",
        "semi_major_axis" : "2.937355276402182",
        "inclination" : "6.922087066134198",
        "ascending_node_longitude" : "192.6361355840656",
        "orbital_period" : "1838.794279652485",
        "perihelion_distance" : "1.252424082890026",
        "perihelion_argument" : "226.4856313740072",
        "aphelion_distance" : "4.622286469914338",
        "perihelion_time" : "2457740.503719516994",
        "mean_anomaly" : "50.90219281711687",
        "mean_motion" : ".195780465484174",
        "equinox" : "J2000"
      }
    }, {
      "links" : {
        "self" : "https://api.nasa.gov/neo/rest/v1/neo/3551475?api_key=t0TVs3DtDT2H8Oy2Zy8m2eVrNsAVKAexjcZXUckd"
      },
      "neo_reference_id" : "3551475",
      "name" : "(2010 VK139)",
      "nasa_jpl_url" : "http://ssd.jpl.nasa.gov/sbdb.cgi?sstr=3551475",
      "absolute_magnitude_h" : 23.7,
      "estimated_diameter" : {
        "kilometers" : {
          "estimated_diameter_min" : 0.0483676488,
          "estimated_diameter_max" : 0.1081533507
        },
        "meters" : {
          "estimated_diameter_min" : 48.3676488219,
          "estimated_diameter_max" : 108.1533506775
        },
        "miles" : {
          "estimated_diameter_min" : 0.0300542543,
          "estimated_diameter_max" : 0.0672033557
        },
        "feet" : {
          "estimated_diameter_min" : 158.6865169607,
          "estimated_diameter_max" : 354.8338390368
        }
      },
      "is_potentially_hazardous_asteroid" : false,
      "close_approach_data" : [ {
        "close_approach_date" : "2001-11-15",
        "epoch_date_close_approach" : 1005811200000,
        "relative_velocity" : {
          "kilometers_per_second" : "17.6857715016",
          "kilometers_per_hour" : "63668.7774058475",
          "miles_per_hour" : "39561.3022719834"
        },
        "miss_distance" : {
          "astronomical" : "0.2543669619",
          "lunar" : "98.9487457275",
          "kilometers" : "38052756",
          "miles" : "23644886"
        },
        "orbiting_body" : "Earth"
      } ],
      "orbital_data" : {
        "orbit_id" : "12",
        "orbit_determination_date" : "2017-04-06 08:55:44",
        "orbit_uncertainty" : "5",
        "minimum_orbit_intersection" : ".00748771",
        "jupiter_tisserand_invariant" : "7.340",
        "epoch_osculation" : "2458000.5",
        "eccentricity" : ".2834334494375809",
        "semi_major_axis" : ".7791518107835675",
        "inclination" : "26.94562708716121",
        "ascending_node_longitude" : "233.3716210769146",
        "orbital_period" : "251.2068937464952",
        "perihelion_distance" : ".5583141254176436",
        "perihelion_argument" : "8.286453516106201",
        "aphelion_distance" : ".9999894961494915",
        "perihelion_time" : "2457912.588699578713",
        "mean_anomaly" : "125.9840750373712",
        "mean_motion" : "1.43308169067722",
        "equinox" : "J2000"
      }
    }, {
      "links" : {
        "self" : "https://api.nasa.gov/neo/rest/v1/neo/3691589?api_key=t0TVs3DtDT2H8Oy2Zy8m2eVrNsAVKAexjcZXUckd"
      },
      "neo_reference_id" : "3691589",
      "name" : "(2014 SM261)",
      "nasa_jpl_url" : "http://ssd.jpl.nasa.gov/sbdb.cgi?sstr=3691589",
      "absolute_magnitude_h" : 21.1,
      "estimated_diameter" : {
        "kilometers" : {
          "estimated_diameter_min" : 0.160160338,
          "estimated_diameter_max" : 0.358129403
        },
        "meters" : {
          "estimated_diameter_min" : 160.1603379786,
          "estimated_diameter_max" : 358.1294030194
        },
        "miles" : {
          "estimated_diameter_min" : 0.0995189894,
          "estimated_diameter_max" : 0.2225312253
        },
        "feet" : {
          "estimated_diameter_min" : 525.4604432536,
          "estimated_diameter_max" : 1174.9652706022
        }
      },
      "is_potentially_hazardous_asteroid" : false,
      "close_approach_data" : [ {
        "close_approach_date" : "2001-11-15",
        "epoch_date_close_approach" : 1005811200000,
        "relative_velocity" : {
          "kilometers_per_second" : "7.8066052314",
          "kilometers_per_hour" : "28103.7788329686",
          "miles_per_hour" : "17462.5952420743"
        },
        "miss_distance" : {
          "astronomical" : "0.4056970628",
          "lunar" : "157.8161621094",
          "kilometers" : "60691420",
          "miles" : "37711900"
        },
        "orbiting_body" : "Earth"
      } ],
      "orbital_data" : {
        "orbit_id" : "26",
        "orbit_determination_date" : "2017-04-06 08:38:23",
        "orbit_uncertainty" : "1",
        "minimum_orbit_intersection" : ".186385",
        "jupiter_tisserand_invariant" : "4.444",
        "epoch_osculation" : "2458000.5",
        "eccentricity" : ".2330149587898791",
        "semi_major_axis" : "1.516270868635041",
        "inclination" : "15.39783205055564",
        "ascending_node_longitude" : "37.60622987708877",
        "orbital_period" : "681.9673984173944",
        "perihelion_distance" : "1.162957074665753",
        "perihelion_argument" : "331.28071511",
        "aphelion_distance" : "1.86958466260433",
        "perihelion_time" : "2458295.442992434860",
        "mean_anomaly" : "204.3041741834658",
        "mean_motion" : ".5278844719490007",
        "equinox" : "J2000"
      }
    } ]
  }
}